start=new Date('2022-06-28T00:00:00.000Z').valueOf();
sats=[{"FILE":"3504144","OBJECT_TYPE":"PAYLOAD","ARG_OF_PERICENTER":"43.8601","TLE_LINE1":"1 51870U 22022U   22178.91667824  .00005905  00000-0  38886-3 0  9997","RA_OF_ASC_NODE":"312.9849","SEMIMAJOR_AXIS":"6917.894","ELEMENT_SET_NO":"999","NORAD_CAT_ID":"51870","DECAY_DATE":null,"REF_FRAME":"TEME","OBJECT_ID":"2022-022U","LAUNCH_DATE":"2022-03-03","CLASSIFICATION_TYPE":"U","ECCENTRICITY":"0.00019470","MEAN_MOTION_DDOT":"0.0000000000000","COUNTRY_CODE":"US","MEAN_MOTION":"15.08835419","SITE":"AFETR","EPHEMERIS_TYPE":"0","GP_ID":"206994255","INCLINATION":"53.2188","MEAN_ANOMALY":"275.7133","PERIOD":"95.438","MEAN_ELEMENT_THEORY":"SGP4","RCS_SIZE":"MEDIUM","MEAN_MOTION_DOT":"0.00005905","PERIAPSIS":"538.412","APOAPSIS":"541.106","BSTAR":"0.00038886000000","OBJECT_NAME":"STARLINK-3591","REV_AT_EPOCH":"130","TLE_LINE2":"2 51870  53.2188 312.9849 0001947  43.8601 275.7133 15.08835419  1305","CENTER_NAME":"EARTH","TIME_SYSTEM":"UTC","EPOCH":"2022-06-27T22:00:00.999936"},{"LAUNCH_DATE":"2022-03-03","OBJECT_ID":"2022-022V","ELEMENT_SET_NO":"999","SEMIMAJOR_AXIS":"6917.853","RA_OF_ASC_NODE":"312.9720","TLE_LINE1":"1 51871U 22022V   22178.91667824 -.00033277  00000-0 -20818-2 0  9998","DECAY_DATE":null,"REF_FRAME":"TEME","NORAD_CAT_ID":"51871","OBJECT_TYPE":"PAYLOAD","ARG_OF_PERICENTER":"39.3920","FILE":"3504144","REV_AT_EPOCH":"130","TLE_LINE2":"2 51871  53.2197 312.9720 0002101  39.3920 340.2016 15.08849109  1300","EPOCH":"2022-06-27T22:00:00.999936","TIME_SYSTEM":"UTC","CENTER_NAME":"EARTH","MEAN_MOTION_DOT":"-0.00033277","PERIAPSIS":"538.264","MEAN_ELEMENT_THEORY":"SGP4","RCS_SIZE":"LARGE","OBJECT_NAME":"STARLINK-3567","APOAPSIS":"541.171","BSTAR":"-0.00208180000000","INCLINATION":"53.2197","GP_ID":"206992508","MEAN_ANOMALY":"340.2016","PERIOD":"95.437","MEAN_MOTION_DDOT":"0.0000000000000","CLASSIFICATION_TYPE":"U","ECCENTRICITY":"0.00021010","SITE":"AFETR","EPHEMERIS_TYPE":"0","COUNTRY_CODE":"US","MEAN_MOTION":"15.08849109"},{"OBJECT_NAME":"STARLINK-3554","BSTAR":"0.00044554000000","APOAPSIS":"541.106","PERIAPSIS":"538.395","MEAN_MOTION_DOT":"0.00006810","RCS_SIZE":"LARGE","MEAN_ELEMENT_THEORY":"SGP4","EPOCH":"2022-06-27T22:00:00.999936","TIME_SYSTEM":"UTC","CENTER_NAME":"EARTH","TLE_LINE2":"2 51872  53.2182 312.9690 0001959  42.6253 296.9701 15.08838364  1306","REV_AT_EPOCH":"130","EPHEMERIS_TYPE":"0","SITE":"AFETR","MEAN_MOTION":"15.08838364","COUNTRY_CODE":"US","MEAN_MOTION_DDOT":"0.0000000000000","CLASSIFICATION_TYPE":"U","ECCENTRICITY":"0.00019590","PERIOD":"95.438","MEAN_ANOMALY":"296.9701","INCLINATION":"53.2182","GP_ID":"206992758","REF_FRAME":"TEME","DECAY_DATE":null,"NORAD_CAT_ID":"51872","SEMIMAJOR_AXIS":"6917.885","ELEMENT_SET_NO":"999","TLE_LINE1":"1 51872U 22022W   22178.91667824  .00006810  00000-0  44554-3 0  9994","RA_OF_ASC_NODE":"312.9690","LAUNCH_DATE":"2022-03-03","OBJECT_ID":"2022-022W","FILE":"3504144","ARG_OF_PERICENTER":"42.6253","OBJECT_TYPE":"PAYLOAD"},{"OBJECT_ID":"2022-022X","LAUNCH_DATE":"2022-03-03","TLE_LINE1":"1 51873U 22022X   22178.91667824 -.00036780  00000-0 -23049-2 0  9991","RA_OF_ASC_NODE":"312.9579","SEMIMAJOR_AXIS":"6917.891","ELEMENT_SET_NO":"999","NORAD_CAT_ID":"51873","REF_FRAME":"TEME","DECAY_DATE":null,"ARG_OF_PERICENTER":"47.0862","OBJECT_TYPE":"PAYLOAD","FILE":"3504144","TLE_LINE2":"2 51873  53.2168 312.9579 0001607  47.0862  32.4872 15.08836388  1308","REV_AT_EPOCH":"130","TIME_SYSTEM":"UTC","CENTER_NAME":"EARTH","EPOCH":"2022-06-27T22:00:00.999936","RCS_SIZE":"LARGE","MEAN_ELEMENT_THEORY":"SGP4","PERIAPSIS":"538.645","MEAN_MOTION_DOT":"-0.00036780","BSTAR":"-0.00230490000000","APOAPSIS":"540.868","OBJECT_NAME":"STARLINK-3582","GP_ID":"206993510","INCLINATION":"53.2168","MEAN_ANOMALY":"32.4872","PERIOD":"95.438","ECCENTRICITY":"0.00016070","CLASSIFICATION_TYPE":"U","MEAN_MOTION_DDOT":"0.0000000000000","MEAN_MOTION":"15.08836388","COUNTRY_CODE":"US","EPHEMERIS_TYPE":"0","SITE":"AFETR"},{"TLE_LINE1":"1 51874U 22022Y   22178.91667824 -.00035457  00000-0 -22195-2 0  9993","RA_OF_ASC_NODE":"312.9636","SEMIMAJOR_AXIS":"6917.824","ELEMENT_SET_NO":"999","NORAD_CAT_ID":"51874","DECAY_DATE":null,"REF_FRAME":"TEME","OBJECT_ID":"2022-022Y","LAUNCH_DATE":"2022-03-03","FILE":"3504144","OBJECT_TYPE":"PAYLOAD","ARG_OF_PERICENTER":"42.6461","MEAN_ELEMENT_THEORY":"SGP4","RCS_SIZE":"LARGE","MEAN_MOTION_DOT":"-0.00035457","PERIAPSIS":"538.291","APOAPSIS":"541.087","BSTAR":"-0.00221950000000","OBJECT_NAME":"STARLINK-3574","REV_AT_EPOCH":"130","TLE_LINE2":"2 51874  53.2173 312.9636 0002021  42.6461 356.9806 15.08858525  1304","TIME_SYSTEM":"UTC","CENTER_NAME":"EARTH","EPOCH":"2022-06-27T22:00:00.999936","ECCENTRICITY":"0.00020210","CLASSIFICATION_TYPE":"U","MEAN_MOTION_DDOT":"0.0000000000000","COUNTRY_CODE":"US","MEAN_MOTION":"15.08858525","SITE":"AFETR","EPHEMERIS_TYPE":"0","INCLINATION":"53.2173","GP_ID":"206993756","PERIOD":"95.436","MEAN_ANOMALY":"356.9806"},{"EPOCH":"2022-06-27T22:00:00.999936","CENTER_NAME":"EARTH","TIME_SYSTEM":"UTC","REV_AT_EPOCH":"130","TLE_LINE2":"2 51875  53.2166 312.9576 0001445  57.4092  56.9737 15.08855611  1306","OBJECT_NAME":"STARLINK-3585","APOAPSIS":"540.697","BSTAR":"-0.00181240000000","MEAN_MOTION_DOT":"-0.00029029","PERIAPSIS":"538.698","MEAN_ELEMENT_THEORY":"SGP4","RCS_SIZE":"LARGE","MEAN_ANOMALY":"56.9737","PERIOD":"95.437","GP_ID":"206993008","INCLINATION":"53.2166","SITE":"AFETR","EPHEMERIS_TYPE":"0","COUNTRY_CODE":"US","MEAN_MOTION":"15.08855611","MEAN_MOTION_DDOT":"0.0000000000000","ECCENTRICITY":"0.00014450","CLASSIFICATION_TYPE":"U","LAUNCH_DATE":"2022-03-03","OBJECT_ID":"2022-022Z","REF_FRAME":"TEME","DECAY_DATE":null,"NORAD_CAT_ID":"51875","ELEMENT_SET_NO":"999","SEMIMAJOR_AXIS":"6917.833","RA_OF_ASC_NODE":"312.9576","TLE_LINE1":"1 51875U 22022Z   22178.91667824 -.00029029  00000-0 -18124-2 0  9999","OBJECT_TYPE":"PAYLOAD","ARG_OF_PERICENTER":"57.4092","FILE":"3504144"},{"FILE":"3504144","OBJECT_TYPE":"PAYLOAD","ARG_OF_PERICENTER":"42.5722","RA_OF_ASC_NODE":"312.9625","TLE_LINE1":"1 51876U 22022AA  22178.91667824  .00013259  00000-0  84993-3 0  9994","SEMIMAJOR_AXIS":"6917.922","ELEMENT_SET_NO":"999","NORAD_CAT_ID":"51876","REF_FRAME":"TEME","DECAY_DATE":null,"OBJECT_ID":"2022-022AA","LAUNCH_DATE":"2022-03-03","ECCENTRICITY":"0.00018250","CLASSIFICATION_TYPE":"U","MEAN_MOTION_DDOT":"0.0000000000000","COUNTRY_CODE":"US","MEAN_MOTION":"15.08826389","SITE":"AFETR","EPHEMERIS_TYPE":"0","GP_ID":"206993258","INCLINATION":"53.2165","MEAN_ANOMALY":"17.0299","PERIOD":"95.438","MEAN_ELEMENT_THEORY":"SGP4","RCS_SIZE":"LARGE","MEAN_MOTION_DOT":"0.00013259","PERIAPSIS":"538.524","APOAPSIS":"541.050","BSTAR":"0.00084993000000","OBJECT_NAME":"STARLINK-3583","REV_AT_EPOCH":"130","TLE_LINE2":"2 51876  53.2165 312.9625 0001825  42.5722  17.0299 15.08826389  1309","CENTER_NAME":"EARTH","TIME_SYSTEM":"UTC","EPOCH":"2022-06-27T22:00:00.999936"},{"FILE":"3504144","OBJECT_TYPE":"PAYLOAD","ARG_OF_PERICENTER":"46.4119","NORAD_CAT_ID":"51877","REF_FRAME":"TEME","DECAY_DATE":null,"RA_OF_ASC_NODE":"302.9778","TLE_LINE1":"1 51877U 22022AB  22178.91667824  .00000109  00000-0  24978-4 0  9993","SEMIMAJOR_AXIS":"6917.903","ELEMENT_SET_NO":"999","OBJECT_ID":"2022-022AB","LAUNCH_DATE":"2022-03-03","COUNTRY_CODE":"US","MEAN_MOTION":"15.08832605","SITE":"AFETR","EPHEMERIS_TYPE":"0","ECCENTRICITY":"0.00017280","CLASSIFICATION_TYPE":"U","MEAN_MOTION_DDOT":"0.0000000000000","PERIOD":"95.438","MEAN_ANOMALY":"108.2199","GP_ID":"206994010","INCLINATION":"53.2129","APOAPSIS":"540.963","BSTAR":"0.00002497800000","OBJECT_NAME":"STARLINK-3556","MEAN_ELEMENT_THEORY":"SGP4","RCS_SIZE":"LARGE","MEAN_MOTION_DOT":"0.00000109","PERIAPSIS":"538.573","TIME_SYSTEM":"UTC","CENTER_NAME":"EARTH","EPOCH":"2022-06-27T22:00:00.999936","REV_AT_EPOCH":"130","TLE_LINE2":"2 51877  53.2129 302.9778 0001728  46.4119 108.2199 15.08832605  1303"},{"OBJECT_ID":"2022-022AC","LAUNCH_DATE":"2022-03-03","RA_OF_ASC_NODE":"312.9598","TLE_LINE1":"1 51878U 22022AC  22178.91667824  .00013696  00000-0  87741-3 0  9995","SEMIMAJOR_AXIS":"6917.940","ELEMENT_SET_NO":"999","NORAD_CAT_ID":"51878","DECAY_DATE":null,"REF_FRAME":"TEME","OBJECT_TYPE":"PAYLOAD","ARG_OF_PERICENTER":"47.2459","FILE":"3504144","REV_AT_EPOCH":"130","TLE_LINE2":"2 51878  53.2161 312.9598 0001885  47.2459  52.3581 15.08820549  1309","CENTER_NAME":"EARTH","TIME_SYSTEM":"UTC","EPOCH":"2022-06-27T22:00:00.999936","MEAN_ELEMENT_THEORY":"SGP4","RCS_SIZE":"LARGE","MEAN_MOTION_DOT":"0.00013696","PERIAPSIS":"538.501","APOAPSIS":"541.109","BSTAR":"0.00087741000000","OBJECT_NAME":"STARLINK-3575","GP_ID":"206994256","INCLINATION":"53.2161","PERIOD":"95.439","MEAN_ANOMALY":"52.3581","CLASSIFICATION_TYPE":"U","ECCENTRICITY":"0.00018850","MEAN_MOTION_DDOT":"0.0000000000000","COUNTRY_CODE":"US","MEAN_MOTION":"15.08820549","SITE":"AFETR","EPHEMERIS_TYPE":"0"},{"FILE":"3504144","ARG_OF_PERICENTER":"46.4916","OBJECT_TYPE":"PAYLOAD","RA_OF_ASC_NODE":"302.9780","TLE_LINE1":"1 51879U 22022AD  22178.91667824 -.00001526  00000-0 -77786-4 0  9996","ELEMENT_SET_NO":"999","SEMIMAJOR_AXIS":"6917.888","NORAD_CAT_ID":"51879","REF_FRAME":"TEME","DECAY_DATE":null,"OBJECT_ID":"2022-022AD","LAUNCH_DATE":"2022-03-03","ECCENTRICITY":"0.00017690","CLASSIFICATION_TYPE":"U","MEAN_MOTION_DDOT":"0.0000000000000","MEAN_MOTION":"15.08837591","COUNTRY_CODE":"US","EPHEMERIS_TYPE":"0","SITE":"AFETR","GP_ID":"206992509","INCLINATION":"53.2145","MEAN_ANOMALY":"148.0842","PERIOD":"95.438","RCS_SIZE":"LARGE","MEAN_ELEMENT_THEORY":"SGP4","PERIAPSIS":"538.529","MEAN_MOTION_DOT":"-0.00001526","BSTAR":"-0.00007778600000","APOAPSIS":"540.977","OBJECT_NAME":"STARLINK-3572","TLE_LINE2":"2 51879  53.2145 302.9780 0001769  46.4916 148.0842 15.08837591  1302","REV_AT_EPOCH":"130","CENTER_NAME":"EARTH","TIME_SYSTEM":"UTC","EPOCH":"2022-06-27T22:00:00.999936"}];
